HIMAWARI-8              
1 40267U 14060A   23261.70548094 -.00000268  00000+0  00000+0 0  9996
2 40267   0.0289 259.9174 0000702 317.5380 174.5325  1.00271957 32816
